KUIPER-00027            
1 63740U 25088S   25239.91668981 -.01793364  00000+0 -10702+0 0  9995
2 63740  51.8859 235.3425 0001096 234.9060   8.9631 15.14018848  5903
KUIPER-00028            
1 63741U 25088T   25239.91668981 -.00936336  00000+0 -48154-1 0  9997
2 63741  51.8923 234.5583 0001804 201.1158  29.3971 15.18700116  5918
KUIPER-00029            
1 63742U 25088U   25239.91668981 -.01195333  00000+0 -53544-1 0  9992
2 63742  51.8765 234.4169 0003275 190.0832  83.5544 15.23597511  3286
KUIPER-00030            
1 63743U 25088V   25239.76600873  .00001313  00000+0  20134-3 0  9994
2 63743  51.9003 248.0604 0014149 155.7002 204.4630 14.79936822 18915
KUIPER-00031            
1 63744U 25088W   25239.91668981 -.01780518  00000+0 -11862+0 0  9994
2 63744  51.8802 236.0466 0002555 150.4026  56.1964 15.10058359  5690
KUIPER-00032            
1 63745U 25088X   25239.68380334  .00016678  00000+0  58714-3 0  9999
2 63745  51.8709 236.4042 0004790 134.5855 225.5520 15.29425811 19783
KUIPER-00033            
1 63746U 25088Y   25239.34300862  .00002519  00000+0  35939-3 0  9994
2 63746  51.8984 265.9926 0002710 262.0242  98.0413 14.79923928 18828
KUIPER-00034            
1 63747U 25088Z   25239.91668981  .00032708  00000+0  11478-2 0  9991
2 63747  51.8737 233.2648 0001040  60.0237  90.8929 15.29128765  5302
